{
  "type": "FeatureCollection",
  "features": [
    {
      "type": "Feature",
      "properties": {
        "norad_id": 67005,
        "name": "STARLINK-36148",
        "group": "last-30-days",
        "lat": 19.523475895949314,
        "lon": -72.21068226980437,
        "alt_km": 363.8574953475272,
        "timestamp": "2025-12-27T19:21:57.546119+00:00",
        "meta_object_name": "STARLINK-36148",
        "meta_object_id": "2025-293C",
        "meta_epoch": "2025-12-27T12:00:02.000160",
        "meta_mean_motion": 15.6958524,
        "meta_eccentricity": 0.0003511,
        "meta_inclination": 69.9989,
        "meta_ra_of_asc_node": 281.2296,
        "meta_arg_of_pericenter": 270.4179,
        "meta_mean_anomaly": 177.5401,
        "meta_ephemeris_type": 0,
        "meta_classification_type": "U",
        "meta_norad_cat_id": 67005,
        "meta_element_set_no": 999,
        "meta_rev_at_epoch": 254,
        "meta_bstar": -0.015853,
        "meta_mean_motion_dot": -0.01664212,
        "meta_mean_motion_ddot": 0,
        "tle_line1": "1 67005U 25293C   25361.50002315 -.01664212  00000+0 -15853-1 0  9998",
        "tle_line2": "2 67005  69.9989 281.2296 0003511 270.4179 177.5401 15.69585240  2541"
      },
      "geometry": {
        "type": "Point",
        "coordinates": [
          -72.21068226980437,
          19.523475895949314
        ]
      }
    },
    {
      "type": "Feature",
      "properties": {
        "norad_id": 67006,
        "name": "STARLINK-36156",
        "group": "last-30-days",
        "lat": 23.835396459017474,
        "lon": -70.37626391335368,
        "alt_km": 363.49283157984337,
        "timestamp": "2025-12-27T19:21:57.546128+00:00",
        "meta_object_name": "STARLINK-36156",
        "meta_object_id": "2025-293D",
        "meta_epoch": "2025-12-27T12:00:02.000160",
        "meta_mean_motion": 15.69534605,
        "meta_eccentricity": 0.0003526,
        "meta_inclination": 69.9987,
        "meta_ra_of_asc_node": 281.2242,
        "meta_arg_of_pericenter": 270.1021,
        "meta_mean_anomaly": 182.5459,
        "meta_ephemeris_type": 0,
        "meta_classification_type": "U",
        "meta_norad_cat_id": 67006,
        "meta_element_set_no": 999,
        "meta_rev_at_epoch": 254,
        "meta_bstar": -0.015865,
        "meta_mean_motion_dot": -0.01662307,
        "meta_mean_motion_ddot": 0,
        "tle_line1": "1 67006U 25293D   25361.50002315 -.01662307  00000+0 -15865-1 0  9995",
        "tle_line2": "2 67006  69.9987 281.2242 0003526 270.1021 182.5459 15.69534605  2548"
      },
      "geometry": {
        "type": "Point",
        "coordinates": [
          -70.37626391335368,
          23.835396459017474
        ]
      }
    },
    {
      "type": "Feature",
      "properties": {
        "norad_id": 67007,
        "name": "STARLINK-36123",
        "group": "last-30-days",
        "lat": 21.787370897828886,
        "lon": -71.26332428204044,
        "alt_km": 363.6957874506261,
        "timestamp": "2025-12-27T19:21:57.546137+00:00",
        "meta_object_name": "STARLINK-36123",
        "meta_object_id": "2025-293E",
        "meta_epoch": "2025-12-27T12:00:02.000160",
        "meta_mean_motion": 15.69556626,
        "meta_eccentricity": 0.0003456,
        "meta_inclination": 69.9987,
        "meta_ra_of_asc_node": 281.2258,
        "meta_arg_of_pericenter": 269.683,
        "meta_mean_anomaly": 180.7412,
        "meta_ephemeris_type": 0,
        "meta_classification_type": "U",
        "meta_norad_cat_id": 67007,
        "meta_element_set_no": 999,
        "meta_rev_at_epoch": 254,
        "meta_bstar": -0.015948,
        "meta_mean_motion_dot": -0.01671238,
        "meta_mean_motion_ddot": 0,
        "tle_line1": "1 67007U 25293E   25361.50002315 -.01671238  00000+0 -15948-1 0  9991",
        "tle_line2": "2 67007  69.9987 281.2258 0003456 269.6830 180.7412 15.69556626  2545"
      },
      "geometry": {
        "type": "Point",
        "coordinates": [
          -71.26332428204044,
          21.787370897828886
        ]
      }
    },
    {
      "type": "Feature",
      "properties": {
        "norad_id": 67008,
        "name": "STARLINK-36163",
        "group": "last-30-days",
        "lat": 26.188227107824904,
        "lon": -69.32027973328482,
        "alt_km": 363.3040454344182,
        "timestamp": "2025-12-27T19:21:57.546146+00:00",
        "meta_object_name": "STARLINK-36163",
        "meta_object_id": "2025-293F",
        "meta_epoch": "2025-12-27T12:00:02.000160",
        "meta_mean_motion": 15.69504101,
        "meta_eccentricity": 0.000343,
        "meta_inclination": 69.9986,
        "meta_ra_of_asc_node": 281.2208,
        "meta_arg_of_pericenter": 269.6006,
        "meta_mean_anomaly": 185.6268,
        "meta_ephemeris_type": 0,
        "meta_classification_type": "U",
        "meta_norad_cat_id": 67008,
        "meta_element_set_no": 999,
        "meta_rev_at_epoch": 254,
        "meta_bstar": -0.016024,
        "meta_mean_motion_dot": -0.01675045,
        "meta_mean_motion_ddot": 0,
        "tle_line1": "1 67008U 25293F   25361.50002315 -.01675045  00000+0 -16024-1 0  9998",
        "tle_line2": "2 67008  69.9986 281.2208 0003430 269.6006 185.6268 15.69504101  2541"
      },
      "geometry": {
        "type": "Point",
        "coordinates": [
          -69.32027973328482,
          26.188227107824904
        ]
      }
    },
    {
      "type": "Feature",
      "properties": {
        "norad_id": 67009,
        "name": "STARLINK-36118",
        "group": "last-30-days",
        "lat": 28.304905683128503,
        "lon": -68.32956954956384,
        "alt_km": 363.06516376829495,
        "timestamp": "2025-12-27T19:21:57.546156+00:00",
        "meta_object_name": "STARLINK-36118",
        "meta_object_id": "2025-293G",
        "meta_epoch": "2025-12-27T12:00:02.000160",
        "meta_mean_motion": 15.69475582,
        "meta_eccentricity": 0.0003719,
        "meta_inclination": 69.9989,
        "meta_ra_of_asc_node": 281.2183,
        "meta_arg_of_pericenter": 273.4305,
        "meta_mean_anomaly": 184.1143,
        "meta_ephemeris_type": 0,
        "meta_classification_type": "U",
        "meta_norad_cat_id": 67009,
        "meta_element_set_no": 999,
        "meta_rev_at_epoch": 248,
        "meta_bstar": -0.016007,
        "meta_mean_motion_dot": -0.01671931,
        "meta_mean_motion_ddot": 0,
        "tle_line1": "1 67009U 25293G   25361.50002315 -.01671931  00000+0 -16007-1 0  9990",
        "tle_line2": "2 67009  69.9989 281.2183 0003719 273.4305 184.1143 15.69475582  2481"
      },
      "geometry": {
        "type": "Point",
        "coordinates": [
          -68.32956954956384,
          28.304905683128503
        ]
      }
    },
    {
      "type": "Feature",
      "properties": {
        "norad_id": 67010,
        "name": "STARLINK-36189",
        "group": "last-30-days",
        "lat": 32.268253974945836,
        "lon": -66.35205368700097,
        "alt_km": 362.69508785792004,
        "timestamp": "2025-12-27T19:21:57.546165+00:00",
        "meta_object_name": "STARLINK-36189",
        "meta_object_id": "2025-293H",
        "meta_epoch": "2025-12-27T12:00:02.000160",
        "meta_mean_motion": 15.69444419,
        "meta_eccentricity": 0.000335,
        "meta_inclination": 69.9987,
        "meta_ra_of_asc_node": 281.2123,
        "meta_arg_of_pericenter": 268.5768,
        "meta_mean_anomaly": 193.3208,
        "meta_ephemeris_type": 0,
        "meta_classification_type": "U",
        "meta_norad_cat_id": 67010,
        "meta_element_set_no": 999,
        "meta_rev_at_epoch": 254,
        "meta_bstar": -0.016009,
        "meta_mean_motion_dot": -0.01669854,
        "meta_mean_motion_ddot": 0,
        "tle_line1": "1 67010U 25293H   25361.50002315 -.01669854  00000+0 -16009-1 0  9995",
        "tle_line2": "2 67010  69.9987 281.2123 0003350 268.5768 193.3208 15.69444419  2540"
      },
      "geometry": {
        "type": "Point",
        "coordinates": [
          -66.35205368700097,
          32.268253974945836
        ]
      }
    },
    {
      "type": "Feature",
      "properties": {
        "norad_id": 67011,
        "name": "STARLINK-36167",
        "group": "last-30-days",
        "lat": 30.15991296780516,
        "lon": -67.42698632972774,
        "alt_km": 362.95844937148104,
        "timestamp": "2025-12-27T19:21:57.546174+00:00",
        "meta_object_name": "STARLINK-36167",
        "meta_object_id": "2025-293J",
        "meta_epoch": "2025-12-27T12:00:02.000160",
        "meta_mean_motion": 15.69468677,
        "meta_eccentricity": 0.000353,
        "meta_inclination": 69.9985,
        "meta_ra_of_asc_node": 281.2141,
        "meta_arg_of_pericenter": 268.9014,
        "meta_mean_anomaly": 190.6695,
        "meta_ephemeris_type": 0,
        "meta_classification_type": "U",
        "meta_norad_cat_id": 67011,
        "meta_element_set_no": 999,
        "meta_rev_at_epoch": 248,
        "meta_bstar": -0.016008,
        "meta_mean_motion_dot": -0.0167141,
        "meta_mean_motion_ddot": 0,
        "tle_line1": "1 67011U 25293J   25361.50002315 -.01671410  00000+0 -16008-1 0  9996",
        "tle_line2": "2 67011  69.9985 281.2141 0003530 268.9014 190.6695 15.69468677  2482"
      },
      "geometry": {
        "type": "Point",
        "coordinates": [
          -67.42698632972774,
          30.15991296780516
        ]
      }
    }
  ]
}